[{"OBJECT_NAME":"SITRO-AIS 8 (ANOKHIN)","OBJECT_ID":"2023-091AD","EPOCH":"2026-03-09T23:44:40.058592","MEAN_MOTION":15.29359179,"ECCENTRICITY":0.0012509,"INCLINATION":97.5169,"RA_OF_ASC_NODE":133.2823,"ARG_OF_PERICENTER":92.0171,"MEAN_ANOMALY":268.2501,"EPHEMERIS_TYPE":0,"CLASSIFICATION_TYPE":"U","NORAD_CAT_ID":57193,"ELEMENT_SET_NO":999,"REV_AT_EPOCH":14927,"BSTAR":0.00064982524,"MEAN_MOTION_DOT":0.00018494,"MEAN_MOTION_DDOT":0},{"OBJECT_NAME":"STARLINK-32150","OBJECT_ID":"2024-132S","EPOCH":"2026-03-09T22:12:11.467872","MEAN_MOTION":15.30201294,"ECCENTRICITY":0.00016475,"INCLINATION":53.1614,"RA_OF_ASC_NODE":51.5373,"ARG_OF_PERICENTER":99.3052,"MEAN_ANOMALY":260.8135,"EPHEMERIS_TYPE":0,"CLASSIFICATION_TYPE":"U","NORAD_CAT_ID":60294,"ELEMENT_SET_NO":999,"REV_AT_EPOCH":9159,"BSTAR":0.00028082235,"MEAN_MOTION_DOT":7.967e-5,"MEAN_MOTION_DDOT":0}]
